ONEWEB-0043             
1 45149U 20008U   23281.55860885  .00000371  00000+0  10255-2 0  9999
2 45149  87.8874 231.4027 0002391  90.6694 269.4707 13.10372429179492
ONEWEB-0044             
1 45150U 20008V   23281.58783519 -.00000558  00000+0 -16361-2 0  9995
2 45150  87.8877 231.3952 0002234  85.4343 274.7039 13.10370073179795
ONEWEB-0045             
1 45151U 20008W   23281.53642086 -.00000447  00000+0 -12975-2 0  9998
2 45151  87.8978 216.2541 0001894  74.7474 285.3863 13.11415747181617
ONEWEB-0047             
1 45152U 20008X   23281.57974659 -.00000131  00000+0 -41117-3 0  9998
2 45152  87.8875 231.3977 0001841  77.4652 282.6681 13.10365947179514
ONEWEB-0048             
1 45153U 20008Y   23281.57484856 -.00000414  00000+0 -12234-2 0  9995
2 45153  87.8877 231.4090 0001996  80.7842 279.3511 13.10367710179125
ONEWEB-0049             
1 45154U 20008Z   23281.57647354 -.00000538  00000+0 -15768-2 0  9992
2 45154  87.8881 231.3788 0001924  84.0955 276.0392 13.10367343179344
ONEWEB-0051             
1 45155U 20008AA  23281.53482542 -.00000331  00000+0 -97045-3 0  9995
2 45155  87.8983 216.2881 0001883  70.3351 289.7980 13.11413432182290
ONEWEB-0052             
1 45156U 20008AB  23281.57323383 -.00000381  00000+0 -11287-2 0  9995
2 45156  87.8881 231.3633 0002023 102.5227 257.6127 13.10366132179250
